NORAD_CAT_ID,OBJECT_NAME,OBJECT_TYPE,EPOCH,MEAN_MOTION,ECCENTRICITY,INCLINATION,RA_OF_ASC_NODE,ARG_OF_PERICENTER,MEAN_ANOMALY,BSTAR,MEAN_MOTION_DOT,MEAN_MOTION_DDOT,TLE_LINE0,TLE_LINE1,TLE_LINE2,SEMIMAJOR_AXIS,PERIOD,APOGEE,PERIGEE,DECAYED
54066.0,STARLINK-5151,PAYLOAD,2023-10-15 09:18:01,15.08828637,0.0001636,53.2175,317.8869,92.8521,267.2658,-7.2585e-05,-1.443e-05,0.0,0 STARLINK-5151,1 54066U 22136R   23288.38751414 -.00001443  00000-0 -72585-4 0  9996,2 54066  53.2175 317.8869 0001636  92.8521 267.2658 15.08828637 54554,6917.915,95.438,540.912,538.648,0.0
54066.0,STARLINK-5151,PAYLOAD,2023-10-15 18:50:19,15.08834938,0.0001674,53.2179,316.1018,93.4573,266.661,4.7617e-05,4.7e-06,0.0,0 STARLINK-5151,1 54066U 22136R   23288.78495334  .00000470  00000-0  47617-4 0  9991,2 54066  53.2179 316.1018 0001674  93.4573 266.6610 15.08834938 54611,6917.896,95.438,540.919,538.603,0.0
54066.0,STARLINK-5151,PAYLOAD,2023-10-16 07:33:24,15.08847602,0.0001546,53.2166,313.7221,87.2786,272.8383,0.00020634,2.998e-05,0.0,0 STARLINK-5151,1 54066U 22136R   23289.31486839  .00002998  00000-0  20634-3 0  9997,2 54066  53.2166 313.7221 0001546  87.2786 272.8383 15.08847602 55171,6917.857,95.437,540.792,538.653,0.0
54066.0,STARLINK-5151,PAYLOAD,2023-10-16 10:44:10,15.08853041,0.0001543,53.2166,313.1275,88.8255,271.2914,0.00045587,6.977e-05,0.0,0 STARLINK-5151,1 54066U 22136R   23289.44734831  .00006977  00000-0  45587-3 0  9994,2 54066  53.2166 313.1275 0001543  88.8255 271.2914 15.08853041 54715,6917.841,95.437,540.773,538.638,0.0
54066.0,STARLINK-5151,PAYLOAD,2023-10-17 08:59:34,15.08849623,0.0001551,53.2164,308.9646,94.9687,265.1482,0.00030768,4.613e-05,0.0,0 STARLINK-5151,1 54066U 22136R   23290.37470830  .00004613  00000-0  30768-3 0  9994,2 54066  53.2164 308.9646 0001551  94.9687 265.1482 15.08849623 55335,6917.851,95.437,540.789,538.643,0.0
54066.0,STARLINK-5151,PAYLOAD,2023-10-18 00:53:26,15.08844828,0.0001542,53.2161,305.9917,91.1624,268.9544,7.6105e-05,9.24e-06,0.0,0 STARLINK-5151,1 54066U 22136R   23291.03710838  .00000924  00000-0  76105-4 0  9990,2 54066  53.2161 305.9917 0001542  91.1624 268.9544 15.08844828 54959,6917.866,95.437,540.797,538.664,0.0
54066.0,STARLINK-5151,PAYLOAD,2023-10-18 10:25:44,15.08849523,0.0001597,53.2161,304.2067,94.5767,265.5407,8.2036e-05,1.018e-05,0.0,0 STARLINK-5151,1 54066U 22136R   23291.43454646  .00001018  00000-0  82036-4 0  9991,2 54066  53.2161 304.2067 0001597  94.5767 265.5407 15.08849523 55490,6917.851,95.437,540.821,538.612,0.0
54066.0,STARLINK-5151,PAYLOAD,2023-10-19 07:05:45,15.08841357,0.0001605,53.2176,300.3373,108.5225,251.5941,0.00024102,3.55e-05,0.0,0 STARLINK-5151,1 54066U 22136R   23292.29567038  .00003550  00000-0  24102-3 0  9998,2 54066  53.2176 300.3373 0001605 108.5225 251.5941 15.08841357 55628,6917.876,95.437,540.852,538.631,0.0
54066.0,STARLINK-5151,PAYLOAD,2023-10-19 18:13:27,15.08847745,0.0001538,53.2166,298.2585,97.7641,262.3526,0.00014746,2.06e-05,0.0,0 STARLINK-5151,1 54066U 22136R   23292.75934660  .00002060  00000-0  14746-3 0  9996,2 54066  53.2166 298.2585 0001538  97.7641 262.3526 15.08847745 55214,6917.857,95.437,540.786,538.658,0.0
54066.0,STARLINK-5151,PAYLOAD,2023-10-20 10:07:19,15.08845171,0.0001787,53.2176,295.2856,98.5457,261.5738,0.00013388,1.844e-05,0.0,0 STARLINK-5151,1 54066U 22136R   23293.42174869  .00001844  00000-0  13388-3 0  9998,2 54066  53.2176 295.2856 0001787  98.5457 261.5738 15.08845171 55793,6917.865,95.437,540.966,538.493,0.0
54066.0,STARLINK-5151,PAYLOAD,2023-10-21 06:47:20,15.08835765,0.0001572,53.2173,291.4202,97.7413,262.3758,1.6543e-05,-2.5e-07,0.0,0 STARLINK-5151,1 54066U 22136R   23294.28287675 -.00000025  00000-0  16543-4 0  9991,2 54066  53.2173 291.4202 0001572  97.7413 262.3758 15.08835765 55922,6917.893,95.438,540.846,538.671,0.0
54066.0,STARLINK-5151,PAYLOAD,2023-10-21 16:19:39,15.08839286,0.0001648,53.2177,289.6358,99.2249,260.893,9.943e-05,1.295e-05,0.0,0 STARLINK-5151,1 54066U 22136R   23294.68031572  .00001295  00000-0  99430-4 0  9993,2 54066  53.2177 289.6358 0001648  99.2249 260.8930 15.08839286 55506,6917.883,95.438,540.888,538.608,0.0
54066.0,STARLINK-5151,PAYLOAD,2023-10-22 05:02:43,15.08849577,0.0001593,53.2173,287.2569,99.7363,260.3809,0.00027696,4.124e-05,0.0,0 STARLINK-5151,1 54066U 22136R   23295.21023099  .00004124  00000-0  27696-3 0  9996,2 54066  53.2173 287.2569 0001593  99.7363 260.3809 15.08849577 56067,6917.851,95.437,540.818,538.614,0.0
54066.0,STARLINK-5151,PAYLOAD,2023-10-22 06:38:07,15.08852628,0.0001517,53.2175,286.9614,98.9444,261.172,0.00038322,5.818e-05,0.0,0 STARLINK-5151,1 54066U 22136R   23295.27647091  .00005818  00000-0  38322-3 0  9995,2 54066  53.2175 286.9614 0001517  98.9444 261.1720 15.08852628 55592,6917.842,95.437,540.756,538.657,0.0
54066.0,STARLINK-5151,PAYLOAD,2023-10-22 16:10:25,15.08847814,0.0001503,53.2174,285.1727,83.0443,277.072,0.0002605,3.861e-05,0.0,0 STARLINK-5151,1 54066U 22136R   23295.67391027  .00003861  00000-0  26050-3 0  9995,2 54066  53.2174 285.1727 0001503  83.0443 277.0720 15.08847814 55650,6917.857,95.437,540.761,538.682,0.0
54066.0,STARLINK-5151,PAYLOAD,2023-10-23 04:53:31,15.08831087,0.0002113,53.2188,282.7981,107.5141,252.6082,-0.00011844,-2.172e-05,0.0,0 STARLINK-5151,1 54066U 22136R   23296.20383836 -.00002172  00000-0 -11844-3 0  9995,2 54066  53.2188 282.7981 0002113 107.5141 252.6082 15.08831087 56213,6917.908,95.438,541.234,538.311,0.0
54066.0,STARLINK-5151,PAYLOAD,2023-10-23 06:28:54,15.08833675,0.0001442,53.2169,282.501,93.7671,266.3486,-6.1976e-05,-1.274e-05,0.0,0 STARLINK-5151,1 54066U 22136R   23296.27007847 -.00001274  00000-0 -61976-4 0  9991,2 54066  53.2169 282.5010 0001442  93.7671 266.3486 15.08833675 55743,6917.9,95.438,540.762,538.767,0.0
54066.0,STARLINK-5151,PAYLOAD,2023-10-24 04:44:18,15.08842754,0.0001527,53.2169,278.3374,89.1131,271.0036,0.00024514,3.616e-05,0.0,0 STARLINK-5151,1 54066U 22136R   23297.19743790  .00003616  00000-0  24514-3 0  9993,2 54066  53.2169 278.3374 0001527  89.1131 271.0036 15.08842754 56364,6917.872,95.437,540.793,538.681,0.0
54066.0,STARLINK-5151,PAYLOAD,2023-10-24 07:55:04,15.0884681,0.0001524,53.2166,277.7428,89.0957,271.021,0.00058954,9.109e-05,0.0,0 STARLINK-5151,1 54066U 22136R   23297.32991845  .00009109  00000-0  58954-3 0  9992,2 54066  53.2166 277.7428 0001524  89.0957 271.0210 15.08846810 55906,6917.86,95.437,540.779,538.67,0.0
54066.0,STARLINK-5151,PAYLOAD,2023-10-25 06:10:28,15.08845184,0.00016,53.2168,273.5798,94.6663,265.4512,0.00023936,3.524e-05,0.0,0 STARLINK-5151,1 54066U 22136R   23298.25727778  .00003524  00000-0  23936-3 0  9994,2 54066  53.2168 273.5798 0001600  94.6663 265.4512 15.08845184 56527,6917.865,95.437,540.836,538.623,0.0
54066.0,STARLINK-5151,PAYLOAD,2023-10-26 04:25:52,15.08842814,0.0001574,53.2166,269.4126,92.266,267.8513,0.00016868,2.398e-05,0.0,0 STARLINK-5151,1 54066U 22136R   23299.18463947  .00002398  00000-0  16868-3 0  9996,2 54066  53.2166 269.4126 0001574  92.2660 267.8513 15.08842814 56664,6917.872,95.437,540.826,538.648,0.0
54066.0,STARLINK-5151,PAYLOAD,2023-10-26 07:36:39,15.08845446,0.0001609,53.2172,268.8178,92.3448,267.7729,0.00018981,2.735e-05,0.0,0 STARLINK-5151,1 54066U 22136R   23299.31711904  .00002735  00000-0  18981-3 0  9993,2 54066  53.2172 268.8178 0001609  92.3448 267.7729 15.08845446 56207,6917.864,95.437,540.842,538.616,0.0
54066.0,STARLINK-5151,PAYLOAD,2023-10-27 04:16:39,15.08855433,0.0001631,53.2167,264.9508,104.337,255.7803,0.00049003,7.523e-05,0.0,0 STARLINK-5151,1 54066U 22136R   23300.17823517  .00007523  00000-0  49003-3 0  9993,2 54066  53.2167 264.9508 0001631 104.3370 255.7803 15.08855433 56339,6917.833,95.437,540.827,538.57,0.0
54066.0,STARLINK-5151,PAYLOAD,2023-10-27 15:24:21,15.08845915,0.0001507,53.2167,262.8709,94.9081,265.2083,0.00025709,3.807e-05,0.0,0 STARLINK-5151,1 54066U 22136R   23300.64191817  .00003807  00000-0  25709-3 0  9994,2 54066  53.2167 262.8709 0001507  94.9081 265.2083 15.08845915 56884,6917.862,95.437,540.77,538.685,0.0
54066.0,STARLINK-5151,PAYLOAD,2023-10-27 21:45:54,15.08842848,0.0001763,53.2165,261.6804,101.9151,258.2038,0.00016866,2.397e-05,0.0,0 STARLINK-5151,1 54066U 22136R   23300.90687967  .00002397  00000-0  16866-3 0  9996,2 54066  53.2165 261.6804 0001763 101.9151 258.2038 15.08842848 56442,6917.872,95.437,540.956,538.517,0.0
54066.0,STARLINK-5151,PAYLOAD,2023-10-28 04:07:27,15.08836792,0.0001599,53.2177,260.4949,85.678,274.4395,-3.5127e-06,-3.44e-06,0.0,0 STARLINK-5151,1 54066U 22136R   23301.17184193 -.00000344  00000-0 -35127-5 0  9994,2 54066  53.2177 260.4949 0001599  85.6780 274.4395 15.08836792 56969,6917.89,95.438,540.861,538.649,0.0
54066.0,STARLINK-5151,PAYLOAD,2023-10-28 21:36:41,15.0884252,0.0001552,53.2179,257.2233,87.6362,272.4808,0.00011717,1.577e-05,0.0,0 STARLINK-5151,1 54066U 22136R   23301.90048232  .00001577  00000-0  11717-3 0  9992,2 54066  53.2179 257.2233 0001552  87.6362 272.4808 15.08842520 56590,6917.873,95.437,540.811,538.664,0.0
54066.0,STARLINK-5151,PAYLOAD,2023-10-29 03:58:13,15.08852652,0.000152,53.2172,256.0329,87.5362,272.5805,0.00046608,7.14e-05,0.0,0 STARLINK-5151,1 54066U 22136R   23302.16543961  .00007140  00000-0  46608-3 0  9999,2 54066  53.2172 256.0329 0001520  87.5362 272.5805 15.08852652 57114,6917.842,95.437,540.758,538.655,0.0
54066.0,STARLINK-5151,PAYLOAD,2023-10-29 13:30:33,15.08835966,0.0002175,53.2177,254.2478,87.2462,272.8779,0.0001071,1.416e-05,0.0,0 STARLINK-5151,1 54066U 22136R   23302.56288712  .00001416  00000-0  10710-3 0  9998,2 54066  53.2177 254.2478 0002175  87.2462 272.8779 15.08835966 56693,6917.893,95.438,541.262,538.253,0.0
54066.0,STARLINK-5151,PAYLOAD,2023-10-29 21:27:28,15.08838872,0.0001533,53.2176,252.7624,90.2187,269.8981,0.00012781,1.747e-05,0.0,0 STARLINK-5151,1 54066U 22136R   23302.89408533  .00001747  00000-0  12781-3 0  9996,2 54066  53.2176 252.7624 0001533  90.2187 269.8981 15.08838872 57223,6917.884,95.438,540.809,538.688,0.0
